$$SOE
2460728.500000000, A.D. 2025-Feb-22 00:00:00.0000, -4.500767851682714E+08, 1.634396013740180E+08, 3.805678110340790E+07,
2460735.500000000, A.D. 2025-Mar-01 00:00:00.0000, -4.547050220798616E+08, 1.545953073574274E+08, 3.873328082172630E+07,
2460742.500000000, A.D. 2025-Mar-08 00:00:00.0000, -4.591358868608117E+08, 1.456838799883993E+08, 3.939296810423616E+07,
2460749.500000000, A.D. 2025-Mar-15 00:00:00.0000, -4.633692733730619E+08, 1.367097659200535E+08, 4.003571252227496E+07,
2460756.500000000, A.D. 2025-Mar-22 00:00:00.0000, -4.674051648708619E+08, 1.276773608535584E+08, 4.066139366662603E+07,
2460763.500000000, A.D. 2025-Mar-29 00:00:00.0000, -4.712436316820948E+08, 1.185910069201638E+08, 4.126990080381110E+07,
2460770.500000000, A.D. 2025-Apr-05 00:00:00.0000, -4.748848272656010E+08, 1.094549910685964E+08, 4.186113245315817E+07,
2460777.500000000, A.D. 2025-Apr-12 00:00:00.0000, -4.783289845742189E+08, 1.002735445533054E+08, 4.243499607001323E+07,
2460784.500000000, A.D. 2025-Apr-19 00:00:00.0000, -4.815764129153995E+08, 9.105084263617624E+07, 4.299140778060082E+07,
2460791.500000000, A.D. 2025-Apr-26 00:00:00.0000, -4.846274950404584E+08, 8.179100429401855E+07, 4.353029212731424E+07,
2460798.500000000, A.D. 2025-May-03 00:00:00.0000, -4.874826843496094E+08, 7.249809194617900E+07, 4.405158181570321E+07,
2460805.500000000, A.D. 2025-May-10 00:00:00.0000, -4.901425021840950E+08, 6.317611120564806E+07, 4.455521746126522E+07,
2460812.500000000, A.D. 2025-May-17 00:00:00.0000, -4.926075351682385E+08, 5.382901060707892E+07, 4.504114732930470E+07,
2460819.500000000, A.D. 2025-May-24 00:00:00.0000, -4.948784324268844E+08, 4.446068125169313E+07, 4.550932704744957E+07,
2460826.500000000, A.D. 2025-May-31 00:00:00.0000, -4.969559022596249E+08, 3.507495667459837E+07, 4.595971927791954E+07,
2460833.500000000, A.D. 2025-Jun-07 00:00:00.0000, -4.988407086717178E+08, 2.567561413386883E+07, 4.639229348476961E+07,
2460840.500000000, A.D. 2025-Jun-14 00:00:00.0000, -5.005336701257595E+08, 1.626637664900506E+07, 4.680702595851413E+07,
2460847.500000000, A.D. 2025-Jun-21 00:00:00.0000, -5.020356592978171E+08, 6.850912512726922E+06, 4.720389971936745E+07,
2460854.500000000, A.D. 2025-Jun-28 00:00:00.0000, -5.033476007089177E+08, -2.567165962722447E+06, 4.758290415655597E+07,
2460861.500000000, A.D. 2025-Jul-05 00:00:00.0000, -5.044704677459942E+08, -1.198430231241564E+07, 4.794403471898610E+07,
2460868.500000000, A.D. 2025-Jul-12 00:00:00.0000, -5.054052802617503E+08, -2.139699520892701E+07, 4.828729270063452E+07,
2460875.500000000, A.D. 2025-Jul-19 00:00:00.0000, -5.061531025634093E+08, -3.080179775510178E+07, 4.861268505636765E+07,
2460882.500000000, A.D. 2025-Jul-26 00:00:00.0000, -5.067150415796345E+08, -4.019531683935366E+07, 4.892022422444639E+07,
2460889.500000000, A.D. 2025-Aug-02 00:00:00.0000, -5.070922451388937E+08, -4.957421253497016E+07, 4.920992795159045E+07,
2460896.500000000, A.D. 2025-Aug-09 00:00:00.0000, -5.072859003343031E+08, -5.893519756107739E+07, 4.948181911735669E+07,
2460903.500000000, A.D. 2025-Aug-16 00:00:00.0000, -5.072972318964316E+08, -6.827503687134528E+07, 4.973592554572026E+07,
2460910.500000000, A.D. 2025-Aug-23 00:00:00.0000, -5.071275002798276E+08, -7.759054735659841E+07, 4.997227977850685E+07,
2460917.500000000, A.D. 2025-Aug-30 00:00:00.0000, -5.067779991325279E+08, -8.687859694979046E+07, 5.019091883899288E+07,
2460924.500000000, A.D. 2025-Sep-06 00:00:00.0000, -5.062500535647197E+08, -9.613610213567798E+07, 5.039188419759892E+07,
2460931.500000000, A.D. 2025-Sep-13 00:00:00.0000, -5.055450208860291E+08, -1.053600263509738E+08, 5.057522189017103E+07,
2460938.500000000, A.D. 2025-Sep-20 00:00:00.0000, -5.046642905378255E+08, -1.145473809216923E+08, 5.074098235455851E+07,
2460945.500000000, A.D. 2025-Sep-27 00:00:00.0000, -5.036092821604565E+08, -1.236952254273573E+08, 5.088922014289698E+07,
2460952.500000000, A.D. 2025-Oct-04 00:00:00.0000, -5.023814438094871E+08, -1.328006669544892E+08, 5.101999373860598E+07,
2460959.500000000, A.D. 2025-Oct-11 00:00:00.0000, -5.009822506927624E+08, -1.418608591846909E+08, 5.113336543524151E+07,
2460966.500000000, A.D. 2025-Oct-18 00:00:00.0000, -4.994132041437293E+08, -1.508730015937232E+08, 5.122940122876146E+07,
2460973.500000000, A.D. 2025-Oct-25 00:00:00.0000, -4.976758306906518E+08, -1.598343387518035E+08, 5.130817071127916E+07,
2460980.500000000, A.D. 2025-Nov-01 00:00:00.0000, -4.957716811810876E+08, -1.687421597103282E+08, 5.136974696381398E+07,
2460987.500000000, A.D. 2025-Nov-08 00:00:00.0000, -4.937023299254567E+08, -1.775937975067911E+08, 5.141420644203178E+07,
2460994.500000000, A.D. 2025-Nov-15 00:00:00.0000, -4.914693737097836E+08, -1.863866288466628E+08, 5.144162883623445E+07,
2461001.500000000, A.D. 2025-Nov-22 00:00:00.0000, -4.890744302724540E+08, -1.951180737424746E+08, 5.145209688617049E+07,
2461008.500000000, A.D. 2025-Nov-29 00:00:00.0000, -4.865191363955220E+08, -2.037855939758754E+08, 5.144569625696170E+07,
2461015.500000000, A.D. 2025-Dec-06 00:00:00.0000, -4.838051478857045E+08, -2.123866905202060E+08, 5.142251567346586E+07,
2461022.500000000, A.D. 2025-Dec-13 00:00:00.0000, -4.809341410106793E+08, -2.209189032960841E+08, 5.138264699767173E+07,
2461029.500000000, A.D. 2025-Dec-20 00:00:00.0000, -4.779078118979909E+08, -2.293798122381483E+08, 5.132618501242107E+07,
2461036.500000000, A.D. 2025-Dec-27 00:00:00.0000, -4.747278749699497E+08, -2.377670370815048E+08, 5.125322722173412E+07,
2461043.500000000, A.D. 2026-Jan-03 00:00:00.0000, -4.713960618722736E+08, -2.460782364830661E+08, 5.116387375112898E+07,
2461050.500000000, A.D. 2026-Jan-10 00:00:00.0000, -4.679141207852597E+08, -2.543111071566662E+08, 5.105822728225437E+07,
2461057.500000000, A.D. 2026-Jan-17 00:00:00.0000, -4.642838158838199E+08, -2.624633831134752E+08, 5.093639299298275E+07,
2461064.500000000, A.D. 2026-Jan-24 00:00:00.0000, -4.605069268673940E+08, -2.705328349847368E+08, 5.079847849769017E+07,
2461071.500000000, A.D. 2026-Jan-31 00:00:00.0000, -4.565852485351079E+08, -2.785172694337490E+08, 5.064459378498266E+07,
2461078.500000000, A.D. 2026-Feb-07 00:00:00.0000, -4.525205903434117E+08, -2.864145287139374E+08, 5.047485114255410E+07,
2461085.500000000, A.D. 2026-Feb-14 00:00:00.0000, -4.483147756919259E+08, -2.942224903878768E+08, 5.028936504472113E+07,
2461092.500000000, A.D. 2026-Feb-21 00:00:00.0000, -4.439696405487287E+08, -3.019390666297884E+08, 5.008825201424946E+07,
2461099.500000000, A.D. 2026-Feb-28 00:00:00.0000, -4.394870324985452E+08, -3.095622019576770E+08, 4.987163065218879E+07,
2461106.500000000, A.D. 2026-Mar-07 00:00:00.0000, -4.348688122709724E+08, -3.170898713453133E+08, 4.963962186508650E+07,
2461113.500000000, A.D. 2026-Mar-14 00:00:00.0000, -4.301168549724733E+08, -3.245200810477316E+08, 4.939234884441854E+07,
2461120.500000000, A.D. 2026-Mar-21 00:00:00.0000, -4.252330492391566E+08, -3.318508692426932E+08, 4.912993687172648E+07,
2461127.500000000, A.D. 2026-Mar-28 00:00:00.0000, -4.202192963189140E+08, -3.390803054591380E+08, 4.885251321790257E+07,
2461134.500000000, A.D. 2026-Apr-04 00:00:00.0000, -4.150775096853289E+08, -3.462064897581310E+08, 4.856020711307237E+07,
2461141.500000000, A.D. 2026-Apr-11 00:00:00.0000, -4.098096149082906E+08, -3.532275520265650E+08, 4.825314973256455E+07,
2461148.500000000, A.D. 2026-Apr-18 00:00:00.0000, -4.044175496211718E+08, -3.601416513907632E+08, 4.793147418392278E+07,
2461155.500000000, A.D. 2026-Apr-25 00:00:00.0000, -3.989032635379185E+08, -3.669469757355367E+08, 4.759531549210097E+07,
2461162.500000000, A.D. 2026-May-02 00:00:00.0000, -3.932687184883453E+08, -3.736417413583797E+08, 4.724481057772394E+07,
2461169.500000000, A.D. 2026-May-09 00:00:00.0000, -3.875158883458121E+08, -3.802241928250316E+08, 4.688009821164529E+07,
2461176.500000000, A.D. 2026-May-16 00:00:00.0000, -3.816467584680476E+08, -3.866926028881438E+08, 4.650131892247437E+07,
2461183.500000000, A.D. 2026-May-23 00:00:00.0000, -3.756633245980364E+08, -3.930452714467630E+08, 4.610861493586002E+07,
2461190.500000000, A.D. 2026-May-30 00:00:00.0000, -3.695675933020921E+08, -3.992805232272074E+08, 4.570213036217846E+07,
2461197.500000000, A.D. 2026-Jun-06 00:00:00.0000, -3.633615842613419E+08, -4.053967074596564E+08, 4.528201139406314E+07,
2461204.500000000, A.D. 2026-Jun-13 00:00:00.0000, -3.570473307505975E+08, -4.113921993527961E+08, 4.484840619377258E+07,
2461211.500000000, A.D. 2026-Jun-20 00:00:00.0000, -3.506268788060173E+08, -4.172654004409798E+08, 4.440146475543970E+07,
2461218.500000000, A.D. 2026-Jun-27 00:00:00.0000, -3.441022867798657E+08, -4.230147381435710E+08, 4.394133886998726E+07,
2461225.500000000, A.D. 2026-Jul-04 00:00:00.0000, -3.374756252820714E+08, -4.286386653109852E+08, 4.346818212904377E+07,
2461232.500000000, A.D. 2026-Jul-11 00:00:00.0000, -3.307489772541279E+08, -4.341356598889899E+08, 4.298214993340249E+07,
2461239.500000000, A.D. 2026-Jul-18 00:00:00.0000, -3.239244380820110E+08, -4.395042246751475E+08, 4.248339949923579E+07,
2461246.500000000, A.D. 2026-Jul-25 00:00:00.0000, -3.170041157228692E+08, -4.447428871642686E+08, 4.197208985968408E+07,
2461253.500000000, A.D. 2026-Aug-01 00:00:00.0000, -3.099901307963640E+08, -4.498501995307845E+08, 4.144838185315049E+07,
2461260.500000000, A.D. 2026-Aug-08 00:00:00.0000, -3.028846164247980E+08, -4.548247387841856E+08, 4.091243807542445E+07,
2461267.500000000, A.D. 2026-Aug-15 00:00:00.0000, -2.956897174064224E+08, -4.596651066477831E+08, 4.036442279426719E+07,
2461274.500000000, A.D. 2026-Aug-22 00:00:00.0000, -2.884075894828248E+08, -4.643699279400190E+08, 3.980450199604502E+07,
2461281.500000000, A.D. 2026-Aug-29 00:00:00.0000, -2.810404009893229E+08, -4.689378488312398E+08, 3.923284366212997E+07,
2461288.500000000, A.D. 2026-Sep-05 00:00:00.0000, -2.735903347545987E+08, -4.733675378445572E+08, 3.864961784497195E+07,
2461295.500000000, A.D. 2026-Sep-12 00:00:00.0000, -2.660595877949750E+08, -4.776576871057997E+08, 3.805499652274126E+07,
$$EOE